ORBCOMM FM115 [+]       
1 41186U 15081H   24045.50846963  .00002082  00000+0  46145-3 0  9995
2 41186  46.9976 199.7780 0000978 289.7773  70.3008 14.60363881436293
ORBCOMM FM108 [+]       
1 41187U 15081J   24045.58772107  .00001570  00000+0  38880-3 0  9990
2 41187  47.0036 251.0048 0002867 230.3607 129.7025 14.56281833435534
ORBCOMM FM117 [+]       
1 41188U 15081K   24045.27919000  .00001424  00000+0  35606-3 0  9993
2 41188  46.9995 251.3815 0003353 240.4395 119.6156 14.56283755435537
ORBCOMM FM116 [+]       
1 41189U 15081L   24045.54303784  .00002818  00000+0  66737-3 0  9997
2 41189  47.0025 339.9521 0002774 325.6537  34.4168 14.56304739434386
