<?xml version="1.0" encoding="UTF-8"?>
<ndm xmlns:xsi="http://www.w3.org/2001/XMLSchema-instance" xsi:noNamespaceSchemaLocation="https://sanaregistry.org/r/ndmxml_unqualified/ndmxml-2.0.0-master-2.0.xsd">
<omm id="CCSDS_OMM_VERS" version="2.0">
<header><CREATION_DATE/><ORIGINATOR/></header><body><segment><metadata><OBJECT_NAME>ORBCOMM FM115 [+]</OBJECT_NAME><OBJECT_ID>2015-081H</OBJECT_ID><CENTER_NAME>EARTH</CENTER_NAME><REF_FRAME>TEME</REF_FRAME><TIME_SYSTEM>UTC</TIME_SYSTEM><MEAN_ELEMENT_THEORY>SGP4</MEAN_ELEMENT_THEORY></metadata><data><meanElements><EPOCH>2024-02-14T12:12:11.776032</EPOCH><MEAN_MOTION>14.60363881</MEAN_MOTION><ECCENTRICITY>.0000978</ECCENTRICITY><INCLINATION>46.9976</INCLINATION><RA_OF_ASC_NODE>199.7780</RA_OF_ASC_NODE><ARG_OF_PERICENTER>289.7773</ARG_OF_PERICENTER><MEAN_ANOMALY>70.3008</MEAN_ANOMALY></meanElements><tleParameters><EPHEMERIS_TYPE>0</EPHEMERIS_TYPE><CLASSIFICATION_TYPE>U</CLASSIFICATION_TYPE><NORAD_CAT_ID>41186</NORAD_CAT_ID><ELEMENT_SET_NO>999</ELEMENT_SET_NO><REV_AT_EPOCH>43629</REV_AT_EPOCH><BSTAR>.46145E-3</BSTAR><MEAN_MOTION_DOT>.2082E-4</MEAN_MOTION_DOT><MEAN_MOTION_DDOT>0</MEAN_MOTION_DDOT></tleParameters></data></segment></body></omm>
<omm id="CCSDS_OMM_VERS" version="2.0">
<header><CREATION_DATE/><ORIGINATOR/></header><body><segment><metadata><OBJECT_NAME>ORBCOMM FM108 [+]</OBJECT_NAME><OBJECT_ID>2015-081J</OBJECT_ID><CENTER_NAME>EARTH</CENTER_NAME><REF_FRAME>TEME</REF_FRAME><TIME_SYSTEM>UTC</TIME_SYSTEM><MEAN_ELEMENT_THEORY>SGP4</MEAN_ELEMENT_THEORY></metadata><data><meanElements><EPOCH>2024-02-14T14:06:19.100448</EPOCH><MEAN_MOTION>14.56281833</MEAN_MOTION><ECCENTRICITY>.0002867</ECCENTRICITY><INCLINATION>47.0036</INCLINATION><RA_OF_ASC_NODE>251.0048</RA_OF_ASC_NODE><ARG_OF_PERICENTER>230.3607</ARG_OF_PERICENTER><MEAN_ANOMALY>129.7025</MEAN_ANOMALY></meanElements><tleParameters><EPHEMERIS_TYPE>0</EPHEMERIS_TYPE><CLASSIFICATION_TYPE>U</CLASSIFICATION_TYPE><NORAD_CAT_ID>41187</NORAD_CAT_ID><ELEMENT_SET_NO>999</ELEMENT_SET_NO><REV_AT_EPOCH>43561</REV_AT_EPOCH><BSTAR>.3888E-3</BSTAR><MEAN_MOTION_DOT>.157E-4</MEAN_MOTION_DOT><MEAN_MOTION_DDOT>0</MEAN_MOTION_DDOT></tleParameters></data></segment></body></omm>
<omm id="CCSDS_OMM_VERS" version="2.0">
<header><CREATION_DATE/><ORIGINATOR/></header><body><segment><metadata><OBJECT_NAME>ORBCOMM FM117 [+]</OBJECT_NAME><OBJECT_ID>2015-081K</OBJECT_ID><CENTER_NAME>EARTH</CENTER_NAME><REF_FRAME>TEME</REF_FRAME><TIME_SYSTEM>UTC</TIME_SYSTEM><MEAN_ELEMENT_THEORY>SGP4</MEAN_ELEMENT_THEORY></metadata><data><meanElements><EPOCH>2024-02-14T06:42:02.016000</EPOCH><MEAN_MOTION>14.56283755</MEAN_MOTION><ECCENTRICITY>.0003353</ECCENTRICITY><INCLINATION>46.9995</INCLINATION><RA_OF_ASC_NODE>251.3815</RA_OF_ASC_NODE><ARG_OF_PERICENTER>240.4395</ARG_OF_PERICENTER><MEAN_ANOMALY>119.6156</MEAN_ANOMALY></meanElements><tleParameters><EPHEMERIS_TYPE>0</EPHEMERIS_TYPE><CLASSIFICATION_TYPE>U</CLASSIFICATION_TYPE><NORAD_CAT_ID>41188</NORAD_CAT_ID><ELEMENT_SET_NO>999</ELEMENT_SET_NO><REV_AT_EPOCH>43553</REV_AT_EPOCH><BSTAR>.35606E-3</BSTAR><MEAN_MOTION_DOT>.1424E-4</MEAN_MOTION_DOT><MEAN_MOTION_DDOT>0</MEAN_MOTION_DDOT></tleParameters></data></segment></body></omm>
<omm id="CCSDS_OMM_VERS" version="2.0">
<header><CREATION_DATE/><ORIGINATOR/></header><body><segment><metadata><OBJECT_NAME>ORBCOMM FM116 [+]</OBJECT_NAME><OBJECT_ID>2015-081L</OBJECT_ID><CENTER_NAME>EARTH</CENTER_NAME><REF_FRAME>TEME</REF_FRAME><TIME_SYSTEM>UTC</TIME_SYSTEM><MEAN_ELEMENT_THEORY>SGP4</MEAN_ELEMENT_THEORY></metadata><data><meanElements><EPOCH>2024-02-14T13:01:58.469376</EPOCH><MEAN_MOTION>14.56304739</MEAN_MOTION><ECCENTRICITY>.0002774</ECCENTRICITY><INCLINATION>47.0025</INCLINATION><RA_OF_ASC_NODE>339.9521</RA_OF_ASC_NODE><ARG_OF_PERICENTER>325.6537</ARG_OF_PERICENTER><MEAN_ANOMALY>34.4168</MEAN_ANOMALY></meanElements><tleParameters><EPHEMERIS_TYPE>0</EPHEMERIS_TYPE><CLASSIFICATION_TYPE>U</CLASSIFICATION_TYPE><NORAD_CAT_ID>41189</NORAD_CAT_ID><ELEMENT_SET_NO>999</ELEMENT_SET_NO><REV_AT_EPOCH>43438</REV_AT_EPOCH><BSTAR>.66737E-3</BSTAR><MEAN_MOTION_DOT>.2818E-4</MEAN_MOTION_DOT><MEAN_MOTION_DDOT>0</MEAN_MOTION_DDOT></tleParameters></data></segment></body></omm>
</ndm>
